satname,norad_id,inclination_deg,eccentricity,mean_motion_rev_per_day,perigee_km,apogee_km,l1,l2
STARLINK-1572,46060,53.1618,0.0001113,15.30207783,474.4290553838391,475.9546063815933,1 46060U 20055AK  26170.75094440  .00000312  00000+0  22637-4 0  9996,2 46060  53.1618   0.0487 0001113  91.8442 268.2687 15.30207783324661
STARLINK-1573,46061,53.1608,8.71e-05,15.31683614,470.1923000336574,471.3853829152431,1 46061U 20055AL  26170.78266719  .00002984  00000+0  10794-3 0  9997,2 46061  53.1608 358.9286 0000871  81.6054 278.5046 15.31683614324710
STARLINK-1577,46063,53.1602,0.0001273,15.31702321,469.86121529342563,471.60493761489033,1 46063U 20055AN  26170.94112115 -.00000197  00000+0  54282-5 0  9994,2 46063  53.1602 358.1865 0001273  90.6608 269.4539 15.31702321324738
STARLINK-1583,46064,53.1611,0.0001258,15.31709392,469.8504131014397,471.57358350941286,1 46064U 20055AP  26171.21617623  .00002950  00000+0  10675-3 0  9994,2 46064  53.1611 357.4116 0001258  98.6042 261.5102 15.31709392324760
STARLINK-1536,46070,53.1594,0.0001573,15.31696932,469.67181099932077,471.8264705792126,1 46070U 20055AV  26171.21747271 -.00000523  00000+0 -50848-5 0  9998,2 46070  53.1594 344.7898 0001573  82.0011 278.1168 15.31696932324947
STARLINK-1542,46073,53.1609,0.0001305,15.31704909,469.8315852529595,471.6191383293881,1 46073U 20055AY  26170.78508194  .00001469  00000+0  59097-4 0  9993,2 46073  53.1609 349.7740 0001305 108.1832 251.9311 15.31704909324822
STARLINK-1549,46074,53.0519,0.0001143,15.32863047,466.4927743285198,468.057635558569,1 46074U 20055AZ  26171.50003471  .00051145  00000+0  15897-2 0  9997,2 46074  53.0519 343.6040 0001143  87.3317  44.7842 15.32863047  5894
STARLINK-1551,46075,53.1622,6.15e-05,15.31701154,470.3153494902108,471.15776093750264,1 46075U 20055BA  26171.20846941  .00001145  00000+0  48646-4 0  9997,2 46075  53.1622 344.7688 0000615 103.0203 257.0867 15.31701154324938
STARLINK-1552,46076,53.1604,0.000126,15.31708126,469.8528167002896,471.5787275988714,1 46076U 20055BB  26171.19443047  .00000831  00000+0  38518-4 0  9994,2 46076  53.1604 344.4167 0001260  76.8341 283.2802 15.31708126324920
STARLINK-1559,46077,53.0245,0.0001027,15.39511489,446.8518698018279,448.25386650074597,1 46077U 20055BC  26171.39296681  .00030690  00000+0  77683-3 0  9998,2 46077  53.0245 312.1516 0001027 327.4894  32.6045 15.39511489325355
STARLINK-1566,46079,53.162,0.0001193,15.31705306,469.9071092228305,471.54124749998664,1 46079U 20055BE  26171.46007590 -.00000051  00000+0  10123-4 0  9993,2 46079  53.1620 343.0311 0001193  99.4036 260.7100 15.31705306324988
STARLINK-1568,46080,53.0539,0.0002928,15.55355467,399.1345611606557,403.10449378314297,1 46080U 20055BF  26171.41282781  .00040090  00000+0  58374-3 0  9992,2 46080  53.0539 259.5567 0002928  61.5700 298.5605 15.55355467326130
STARLINK-1578,46082,53.1629,0.0001054,15.31689689,470.0488570775842,471.4926068274808,1 46082U 20055BH  26171.46448566 -.00001261  00000+0 -28894-4 0  9998,2 46082  53.1629 343.5306 0001054  88.3505 271.7618 15.31689689324974
STARLINK-1579,46083,53.161,0.0001386,15.31706082,469.77261332140915,471.6711169988321,1 46083U 20055BJ  26170.86351017  .00002024  00000+0  76946-4 0  9993,2 46083  53.1610 345.8634 0001386  78.9796 281.1361 15.31706082324886
STARLINK-1622,46128,53.0124,0.0004652,15.90160839,298.7248636162831,304.939907132436,1 46128U 20057M   26171.50003471  .00272156  38263-4  89009-3 0  9990,2 46128  53.0124  71.7531 0004652 146.3300 230.2540 15.90160839  6044
STARLINK-1623,46129,53.0382,0.0004783,15.77876182,333.247515026118,339.67069766144687,1 46129U 20057N   26171.23484909  .00133349  00000+0  76550-3 0  9990,2 46129  53.0382 112.3608 0004783  83.5776 276.5788 15.77876182322983
STARLINK-1596,46141,53.0331,0.0005826,15.61963214,378.04821078857367,385.9251068758449,1 46141U 20057AA  26171.19036508  .00097106  00000+0  10859-2 0  9996,2 46141  53.0331  96.4749 0005826  81.7125 278.4549 15.61963214323204
STARLINK-1597,46142,53.0384,0.0004841,15.7741423,334.5188024967765,341.02114362809607,1 46142U 20057AB  26171.34101708  .00126884  00000+0  74427-3 0  9997,2 46142  53.0384 151.6080 0004841  67.6762 292.4771 15.77414230322434
STARLINK-1606,46144,53.0275,0.0003663,16.10247003,243.7393017536051,248.59226597306406,1 46144U 20057AD  26172.49876624  .00978318  56977-3  10023-2 0  9998,2 46144  53.0275  96.2261 0003663 209.6542 150.4284 16.10247003311569
STARLINK-1608,46146,53.1564,0.0005815,15.37238434,450.30674967828327,458.2528504167394,1 46146U 20057AF  26171.34016462  .00039827  00000+0  10805-2 0  9992,2 46146  53.1564 190.6090 0005815  20.8965 339.2275 15.37238434321929
STARLINK-1667,46155,53.0075,0.0004819,15.99917136,271.44242452909657,277.85437909936536,1 46155U 20057AQ  26171.50003471  .00504285  12154-3  96967-3 0  9992,2 46155  53.0075  70.2199 0004819 185.9015 196.9676 15.99917136  6058
STARLINK-1545,46156,53.0347,0.000334,15.92426701,293.26527535537116,297.72326104252807,1 46156U 20057AR  26171.50003471  .00281277  41009-4  81861-3 0  9995,2 46156  53.0347 107.1300 0003340 204.4066 242.4347 15.92426701  6009
STARLINK-1595,46159,53.0393,0.0005686,15.75076208,340.5918887496573,348.23677412376674,1 46159U 20057AU  26171.32704267  .00107481  00000+0  70076-3 0  9990,2 46159  53.0393 154.6383 0005686  63.2147 296.9452 15.75076208323655
STARLINK-1598,46160,53.0425,0.000105,15.74475546,345.41794302932885,346.83003783731965,1 46160U 20057AV  26171.30461481  .00095260  00000+0  63936-3 0  9996,2 46160  53.0425 140.9480 0001050  13.6685 346.4361 15.74475546323833
STARLINK-1626,46167,53.0384,0.0001633,15.78157549,334.56463020655156,336.75735663120213,1 46167U 20057BC  26171.33000841  .00117710  00000+0  66928-3 0  9994,2 46167  53.0384 149.9570 0001633  98.7953 261.3252 15.78157549322468
STARLINK-1633,46171,53.0307,0.000294,15.87789247,306.5165289598817,310.4482611641788,1 46171U 20057BG  26171.50003471  .00069587  00000+0  25408-3 0  9996,2 46171  53.0307 109.3529 0002940 185.0935  44.1694 15.87789247  6006
STARLINK-1635,46172,53.0307,0.0004112,15.96891835,280.30911020879194,285.7872689086853,1 46172U 20057BH  26171.50003471  .00364240  64943-4  83195-3 0  9999,2 46172  53.0307 106.5453 0004112 202.2650 271.1600 15.96891835  6030
STARLINK-1640,46173,53.039,0.0005704,15.75134681,340.41350990723186,348.08240666764505,1 46173U 20057BJ  26171.36300455  .00126174  00000+0  81802-3 0  9990,2 46173  53.0390 155.4864 0005704  59.4876 300.6705 15.75134681322381
